API VERSION: 1.2
API SOURCE: NASA/JPL Horizons API

*******************************************************************************
 Revised: April 12, 2021         Uranus Barycenter                            7
 
 Dynamical point:
 ---------------
 The location of the center-of-mass of the Uranus system. The point about 
 which Uranus and its satellites revolve. See 799 for Uranus center.
*******************************************************************************


*******************************************************************************
Ephemeris / API_USER Sat May 17 05:22:02 2025 Pasadena, USA      / Horizons
*******************************************************************************
Target body name: Uranus Barycenter (7)           {source: DE441}
Center body name: Sun (10)                        {source: DE441}
Center-site name: BODY CENTER
*******************************************************************************
Start time      : A.D. 2005-Jan-01 00:00:00.0000 TDB
Stop  time      : A.D. 2025-Jan-01 00:00:00.0000 TDB
Step-size       : 1440 minutes
*******************************************************************************
Center geodetic : 0.0, 0.0, 0.0                   {E-lon(deg),Lat(deg),Alt(km)}
Center cylindric: 0.0, 0.0, 0.0                   {E-lon(deg),Dxy(km),Dz(km)}
Center radii    : 695700.0, 695700.0, 695700.0 km {Equator_a, b, pole_c}
Output units    : KM-S
Calendar mode   : Mixed Julian/Gregorian
Output type     : GEOMETRIC cartesian states
Output format   : 3 (position, velocity, LT, range, range-rate)
Reference frame : Ecliptic of J2000.0
*******************************************************************************
JDTDB
   X     Y     Z
   VX    VY    VZ
   LT    RG    RR
*******************************************************************************
$$SOE
2459581.500000000 = A.D. 2022-Jan-02 00:00:00.0000 TDB 
 X = 2.153447944237924E+09 Y = 2.016790708350649E+09 Z =-2.041530843077624E+07
 VX=-4.701404796955500E+00 VY= 4.665953950419119E+00 VZ= 7.800684568679750E-02
 LT= 9.841666940587698E+03 RG= 2.950457522936126E+09 RR=-2.425286419101415E-01
2459582.500000000 = A.D. 2022-Jan-03 00:00:00.0000 TDB 
 X = 2.153041700457043E+09 Y = 2.017193807982754E+09 Z =-2.040856822757268E+07
 VX=-4.702386390244405E+00 VY= 4.665056006969523E+00 VZ= 7.801637515185944E-02
 LT= 9.841597037208092E+03 RG= 2.950436566430131E+09 RR=-2.425756612985975E-01
2459583.500000000 = A.D. 2022-Jan-04 00:00:00.0000 TDB 
 X = 2.152635371876124E+09 Y = 2.017596830020828E+09 Z =-2.040182720141542E+07
 VX=-4.703367760082651E+00 VY= 4.664157791814477E+00 VZ= 7.802589540230098E-02
 LT= 9.841527120279494E+03 RG= 2.950415605862250E+09 RR=-2.426226668631948E-01
2459584.500000000 = A.D. 2022-Jan-05 00:00:00.0000 TDB 
 X = 2.152228958514676E+09 Y = 2.017999774441275E+09 Z =-2.039508535313725E+07
 VX=-4.704348901598399E+00 VY= 4.663259302197440E+00 VZ= 7.803540557840916E-02
 LT= 9.841457189806088E+03 RG= 2.950394641233739E+09 RR=-2.426696570459856E-01
2459585.500000000 = A.D. 2022-Jan-06 00:00:00.0000 TDB 
 X = 2.151822460392676E+09 Y = 2.018402641220273E+09 Z =-2.038834268364859E+07
 VX=-4.705329808778230E+00 VY= 4.662360535698792E+00 VZ= 7.804490474114822E-02
 LT= 9.841387245792655E+03 RG= 2.950373672546030E+09 RR=-2.427166292306193E-01
2459586.500000000 = A.D. 2022-Jan-07 00:00:00.0000 TDB 
 X = 2.151415877530674E+09 Y = 2.018805430333817E+09 Z =-2.038159919394398E+07
 VX=-4.706310474411278E+00 VY= 4.661461490516419E+00 VZ= 7.805439189012087E-02
 LT= 9.841317288244916E+03 RG= 2.950352699800838E+09 RR=-2.427635795103446E-01
2459587.500000000 = A.D. 2022-Jan-08 00:00:00.0000 TDB 
 X = 2.151009209949895E+09 Y = 2.019208141757782E+09 Z =-2.037485488510573E+07
 VX=-4.707290890095230E+00 VY= 4.660562165770868E+00 VZ= 7.806386598919857E-02
 LT= 9.841247317169920E+03 RG= 2.950331723000276E+09 RR=-2.428105024841286E-01
2459588.500000000 = A.D. 2022-Jan-09 00:00:00.0000 TDB 
 X = 2.150602457672337E+09 Y = 2.019610775468021E+09 Z =-2.036810975830650E+07
 VX=-4.708271046323370E+00 VY= 4.659662561887544E+00 VZ= 7.807332600589234E-02
 LT= 9.841177332576517E+03 RG= 2.950310742146997E+09 RR=-2.428573910588847E-01
2459589.500000000 = A.D. 2022-Jan-10 00:00:00.0000 TDB 
 X = 2.150195620720861E+09 Y = 2.020013331440494E+09 Z =-2.036136381480598E+07
 VX=-4.709250932693483E+00 VY= 4.658762680927796E+00 VZ= 7.808277095772320E-02
 LT= 9.841107334475855E+03 RG= 2.950289757244345E+09 RR=-2.429042363750921E-01
2459590.500000000 = A.D. 2022-Jan-11 00:00:00.0000 TDB 
 X = 2.149788699119256E+09 Y = 2.020415809651420E+09 Z =-2.035461705594432E+07
 VX=-4.710230538218952E+00 VY= 4.657862526926024E+00 VZ= 7.809219996845873E-02
 LT= 9.841037322881893E+03 RG= 2.950268768296503E+09 RR=-2.429510278023050E-01
2459591.500000000 = A.D. 2022-Jan-12 00:00:00.0000 TDB 
 X = 2.149381692892267E+09 Y = 2.020818210077462E+09 Z =-2.034786948313105E+07
 VX=-4.711209851761599E+00 VY= 4.656962106157715E+00 VZ= 7.810161232987878E-02
 LT= 9.840967297811891E+03 RG= 2.950247775308644E+09 RR=-2.429977530700732E-01
2459592.500000000 = A.D. 2022-Jan-13 00:00:00.0000 TDB 
 X = 2.148974602065591E+09 Y = 2.021220532695928E+09 Z =-2.034112109782743E+07
 VX=-4.712188862570773E+00 VY= 4.656061427281585E+00 VZ= 7.811100756299227E-02
 LT= 9.840897259286850E+03 RG= 2.950226778287068E+09 RR=-2.430443985618347E-01
2459593.500000000 = A.D. 2022-Jan-14 00:00:00.0000 TDB 
 X = 2.148567426665816E+09 Y = 2.021622777484978E+09 Z =-2.033437190152347E+07
 VX=-4.713167560887372E+00 VY= 4.655160501317585E+00 VZ= 7.812038547180533E-02
 LT= 9.840827207331842E+03 RG= 2.950205777239288E+09 RR=-2.430909497678973E-01
2459594.500000000 = A.D. 2022-Jan-15 00:00:00.0000 TDB 
 X = 2.148160166720306E+09 Y = 2.022024944423818E+09 Z =-2.032762189571345E+07
 VX=-4.714145938554748E+00 VY= 4.654259341441920E+00 VZ= 7.812974618276991E-02
 LT= 9.840757141976170E+03 RG= 2.950184772174091E+09 RR=-2.431373918682047E-01
2459595.500000000 = A.D. 2022-Jan-16 00:00:00.0000 TDB 
 X = 2.147752822257044E+09 Y = 2.022427033492872E+09 Z =-2.032087108186543E+07
 VX=-4.715123989570910E+00 VY= 4.653357962600082E+00 VZ= 7.813909016396869E-02
 LT= 9.840687063253383E+03 RG= 2.950163763101533E+09 RR=-2.431837103966493E-01
2459596.500000000 = A.D. 2022-Jan-17 00:00:00.0000 TDB 
 X = 2.147345393304417E+09 Y = 2.022829044673913E+09 Z =-2.031411946139216E+07
 VX=-4.716101710517955E+00 VY= 4.652456380959349E+00 VZ= 7.814841821993279E-02
 LT= 9.840616971201061E+03 RG= 2.950142750032881E+09 RR=-2.432298919258065E-01
2459597.500000000 = A.D. 2022-Jan-18 00:00:00.0000 TDB 
 X = 2.146937879890992E+09 Y = 2.023230977950143E+09 Z =-2.030736703562379E+07
 VX=-4.717079100815424E+00 VY= 4.651554613243284E+00 VZ= 7.815773146065141E-02
 LT= 9.840546865860430E+03 RG= 2.950121732980495E+09 RR=-2.432759247044441E-01
2459598.500000000 = A.D. 2022-Jan-19 00:00:00.0000 TDB 
 X = 2.146530282045255E+09 Y = 2.023632833306201E+09 Z =-2.030061380578327E+07
 VX=-4.718056162764085E+00 VY= 4.650652676012379E+00 VZ= 7.816703124697622E-02
 LT= 9.840476747275790E+03 RG= 2.950100711957654E+09 RR=-2.433217991797645E-01
2459599.500000000 = A.D. 2022-Jan-20 00:00:00.0000 TDB 
 X = 2.146122599795381E+09 Y = 2.024034610728129E+09 Z =-2.029385977296746E+07
 VX=-4.719032901375656E+00 VY= 4.649750584977235E+00 VZ= 7.817631911903522E-02
 LT= 9.840406615493843E+03 RG= 2.950079686978360E+09 RR=-2.433675083421590E-01
2459600.500000000 = A.D. 2022-Jan-21 00:00:00.0000 TDB 
 X = 2.145714833169000E+09 Y = 2.024436310203269E+09 Z =-2.028710493813515E+07
 VX=-4.720009324022110E+00 VY= 4.648848354453459E+00 VZ= 7.818559671968162E-02
 LT= 9.840336470562917E+03 RG= 2.950058658057101E+09 RR=-2.434130478422936E-01
2459601.500000000 = A.D. 2022-Jan-22 00:00:00.0000 TDB 
 X = 2.145306982193024E+09 Y = 2.024837931720122E+09 Z =-2.028034930210185E+07
 VX=-4.720985439968227E+00 VY= 4.647945996906638E+00 VZ= 7.819486571453504E-02
 LT= 9.840266312532221E+03 RG= 2.950037625208631E+09 RR=-2.434584159623091E-01
2459602.500000000 = A.D. 2022-Jan-23 00:00:00.0000 TDB 
 X = 2.144899046893502E+09 Y = 2.025239475268177E+09 Z =-2.027359286554074E+07
 VX=-4.721961259819410E+00 VY= 4.647043522710347E+00 VZ= 7.820412772189433E-02
 LT= 9.840196141451104E+03 RG= 2.950016588447742E+09 RR=-2.435036133800943E-01
2459603.500000000 = A.D. 2022-Jan-24 00:00:00.0000 TDB 
 X = 2.144491027295527E+09 Y = 2.025640940837725E+09 Z =-2.026683562898910E+07
 VX=-4.722936794975051E+00 VY= 4.646140940059400E+00 VZ= 7.821338425550106E-02
 LT= 9.840125957368407E+03 RG= 2.949995547789078E+09 RR=-2.435486428318357E-01
2459604.500000000 = A.D. 2022-Jan-25 00:00:00.0000 TDB 
 X = 2.144082923423192E+09 Y = 2.026042328419673E+09 Z =-2.026007759285951E+07
 VX=-4.723912057127917E+00 VY= 4.645238255032799E+00 VZ= 7.822263668397023E-02
 LT= 9.840055760331943E+03 RG= 2.949974503246972E+09 RR=-2.435935087058863E-01
2459605.500000000 = A.D. 2022-Jan-26 00:00:00.0000 TDB 
 X = 2.143674735299584E+09 Y = 2.026443638005367E+09 Z =-2.025331875745356E+07
 VX=-4.724887057832800E+00 VY= 4.644335471765874E+00 VZ= 7.823188620545696E-02
 LT= 9.839985550388074E+03 RG= 2.949953454835323E+09 RR=-2.436382166124667E-01
2459606.500000000 = A.D. 2022-Jan-27 00:00:00.0000 TDB 
 X = 2.143266462946809E+09 Y = 2.026844869586436E+09 Z =-2.024655912297750E+07
 VX=-4.725861808178195E+00 VY= 4.643432592697894E+00 VZ= 7.824113383792586E-02
 LT= 9.839915327581413E+03 RG= 2.949932402567506E+09 RR=-2.436827729766823E-01
2459607.500000000 = A.D. 2022-Jan-28 00:00:00.0000 TDB 
 X = 2.142858106386041E+09 Y = 2.027246023154657E+09 Z =-2.023979868955648E+07
 VX=-4.726836318556334E+00 VY= 4.642529618854875E+00 VZ= 7.825038042132038E-02
 LT= 9.839845091954647E+03 RG= 2.949911346456319E+09 RR=-2.437271846789358E-01
